STARLINK-5532           
1 55760U 23028V   26068.87818377  .00001075  00000+0  97836-4 0  9998
2 55760  69.9992 243.7677 0003132 266.5125  93.5676 14.98337029166073
SHIYAN-24C 03           
1 58652U 23206C   26068.89147317  .00001350  00000+0  11928-3 0  9993
2 58652  97.3969  41.7507 0002411  66.6237 293.5240 14.97896938120432
